line1,line2,validFromUtcTime
1 00000U 00000E   26001.00000000  .00000000  00000-0  27772-4 0    01,2 00000  88.8750  60.3318 0010061 269.9702  67.6041 13.55304065    08,2026-01-01T00:00:00Z
1 00000U 00000E   26002.00000000  .00000000  00000-0  27772-4 0    02,2 00000  88.8741  60.2167 0010082 265.6752 268.0474 13.55270862    04,2026-01-02T00:00:00Z
